ONEWEB-0707             
1 61612U 24188U   25083.47317662 -.00000027  00000+0 -11430-3 0  9995
2 61612  87.8827 125.8985 0001228  92.2843 267.8425 13.10372961 24426
ONEWEB-0708             
1 61613U 24188V   25083.87317240  .00000703  00000+0  19774-2 0  9999
2 61613  87.8876 125.7812 0001342 112.0534 248.0736 13.10379948 24455
